##########################################################
# Query made at 01/09/2012 16:38:04 UTC
# Time interval: from 12/24/2011 23:00  to 12/26/2011 00:00  UTC
##########################################################

##########################################################
# KRST, Rochester, Rochester International Airport (United States)
# WMO index: 72644
# Latitude 43-54-15N. Longitude 092-29-30W. Altitude 401 m.
##########################################################

###################################
#  METAR/SPECI from KRST
###################################
201112252354 METAR KRST 252354Z 26007KT 10SM CLR M01/M05 A3028 RMK AO2
                        SLP270 T10111050 10050 21011 53010=
201112252254 METAR KRST 252254Z 31008KT 10SM CLR 01/M04 A3026 RMK AO2
                        SLP263 T00111044=
201112252154 METAR KRST 252154Z 31016KT 10SM CLR 04/M04 A3026 RMK AO2
                        SLP259 T00391039=
201112252054 METAR KRST 252054Z 31016G21KT 10SM CLR 05/M04 A3024 RMK AO2
                        PK WND 31027/2010 SLP254 T00501039
                        53006=
201112251954 METAR KRST 251954Z 31019G29KT 10SM CLR 05/M04 A3022 RMK AO2
                        PK WND 30029/1950 SLP244 T00501039=
201112251854 METAR KRST 251854Z 30020G26KT 10SM CLR 04/M04 A3022 RMK AO2
                        PK WND 30026/1850 SLP245 T00441039=
201112251754 METAR KRST 251754Z 30019G24KT 10SM CLR 04/M03 A3023 RMK AO2
                        SLP247 T00391033 10039 21006 50018=
201112251654 METAR KRST 251654Z 30018G24KT 10SM CLR 03/M03 A3023 RMK AO2
                        SLP248 T00281033=
201112251554 METAR KRST 251554Z 29015KT 10SM CLR 02/M04 A3020 RMK AO2
                        SLP240 T00221039=
201112251454 METAR KRST 251454Z 29015KT 10SM CLR 01/M04 A3017 RMK AO2
                        SLP230 T00061044 51030=
201112251354 METAR KRST 251354Z 30015KT 10SM CLR M01/M04 A3014 RMK AO2
                        SLP221 T10061044=
201112251254 METAR KRST 251254Z 30015KT 10SM CLR 00/M04 A3012 RMK AO2
                        SLP213 T00001044=
201112251154 METAR KRST 251154Z 29013KT 10SM CLR M01/M06 A3008 RMK AO2
                        SLP199 T10061056 10022 21006 53014=
201112251054 METAR KRST 251054Z 28013KT 10SM CLR 00/M06 A3005 RMK AO2
                        SLP192 T00001056=
201112250954 METAR KRST 250954Z AUTO 28015KT 10SM CLR 01/M06 A3004 RMK
                        AO2 SLP184 T00111056=
201112250854 METAR KRST 250854Z AUTO 27013KT 10SM CLR 01/M06 A3004 RMK
                        AO2 SLP183 T00111056 55002=
201112250754 METAR KRST 250754Z AUTO 29013KT 10SM CLR 01/M05 A3003 RMK
                        AO2 SLP183 T00111050=
201112250654 METAR KRST 250654Z AUTO 25014KT 10SM CLR 02/M05 A3001 RMK
                        AO2 SLP174 T00221050=
201112250554 METAR KRST 250554Z AUTO 26012KT 10SM CLR 02/M04 A3004 RMK
                        AO2 SLP186 T00221044 10044 20022
                        400441094 58001=
201112250454 METAR KRST 250454Z AUTO 27015KT 10SM CLR 03/M04 A3005 RMK
                        AO2 SLP188 T00331044=
201112250354 METAR KRST 250354Z 27015KT 10SM SCT110 04/M04 A3005 RMK AO2
                        SLP190 T00441044=
201112250254 METAR KRST 250254Z 26015KT 10SM CLR 04/M04 A3004 RMK AO2
                        SLP188 T00391039 56014=
201112250154 METAR KRST 250154Z 25017KT 10SM FEW120 04/M03 A3005 RMK AO2
                        SLP193 T00391033=
201112250054 METAR KRST 250054Z 24013KT 10SM CLR 03/M03 A3007 RMK AO2
                        SLP200 T00331033=
201112242354 METAR KRST 242354Z 24013KT 10SM FEW120 02/M03 A3009 RMK AO2
                        SLP207 T00221033 10044 20017 51004=

# No short TAF reports from KRST in databse.

###################################
#  large TAF from KRST
###################################
201112252327 TAF KRST 252327Z 2600/2624 29008KT P6SM SKC FM260500 22010KT P6SM
                       SKC FM261200 21018KT P6SM SKC WS015/23050KT
                       FM261600 21025G34KT P6SM SCT100=
201112251726 TAF KRST 251726Z 2518/2618 30018G25KT P6SM SKC FM252200 29014KT
                       P6SM SKC FM260500 22010KT P6SM SKC FM261200
                       21012KT P6SM SKC WS020/23050KT FM261600
                       31025G33KT P6SM SCT100=
201112251513 KRST 251513Z 2515/2612 29015KT P6SM SKC FM251700 31017G25KT P6SM
                       SKC FM260000 27008KT P6SM SKC FM260800 21012KT
                       P6SM SKC=
201112251120 TAF KRST 251120Z 2512/2612 29015KT P6SM SKC FM251500 31017G25KT
                       P6SM SKC FM260000 27008KT P6SM SKC FM260800
                       21012KT P6SM SKC=
201112250520 TAF KRST 250520Z 2506/2606 26015KT P6SM BKN150 FM251000 29017KT
                       P6SM SCT130 FM251500 31017G25KT P6SM SKC
                       FM260000 28008KT P6SM SKC=
201112242320 TAF KRST 242320Z 2500/2524 25015KT P6SM BKN150 FM251000 29017KT
                       P6SM SKC FM251500 31017G25KT P6SM SKC=




from xwus.....

2011-12-25 23:54 METAR KRST 260554Z 20007KT 10SM CLR M04/M06 A3021 RMK AO2 SLP247 T10391061 11006
                 21050 400501050 58010 =
2011-12-25 22:54 METAR KRST 260454Z 18005KT 10SM CLR M04/M06 A3023 RMK AO2 SLP254 T10441061 =
2011-12-25 21:54 METAR KRST 260354Z 24008KT 10SM CLR M02/M05 A3023 RMK AO2 SLP253 T10221050 =
2011-12-25 20:54 METAR KRST 260254Z 25007KT 10SM CLR M03/M06 A3024 RMK AO2 SLP259 T10331056 58010
                 =
2011-12-25 19:54 METAR KRST 260154Z 26007KT 10SM CLR M02/M05 A3027 RMK AO2 SLP267 T10221050 =
2011-12-25 18:54 METAR KRST 260054Z 26006KT 10SM CLR M02/M05 A3026 RMK AO2 SLP266 T10171050 =
2011-12-25 17:54 METAR KRST 252354Z 26007KT 10SM CLR M01/M05 A3028 RMK AO2 SLP270 T10111050 10050
                 21011 53010 =
2011-12-25 16:54 METAR KRST 252254Z 31008KT 10SM CLR 01/M04 A3026 RMK AO2 SLP263 T00111044 =
2011-12-25 15:54 METAR KRST 252154Z 31016KT 10SM CLR 04/M04 A3026 RMK AO2 SLP259 T00391039 =
2011-12-25 14:54 METAR KRST 252054Z 31016G21KT 10SM CLR 05/M04 A3024 RMK AO2 PK WND 31027/2010
                 SLP254 T00501039 53006 =
2011-12-25 13:54 METAR KRST 251954Z 31019G29KT 10SM CLR 05/M04 A3022 RMK AO2 PK WND 30029/1950
                 SLP244 T00501039 =
2011-12-25 12:54 METAR KRST 251854Z 30020G26KT 10SM CLR 04/M04 A3022 RMK AO2 PK WND 30026/1850
                 SLP245 T00441039 =
2011-12-25 11:54 METAR KRST 251754Z 30019G24KT 10SM CLR 04/M03 A3023 RMK AO2 SLP247 T00391033
                 10039 21006 50018 =
2011-12-25 10:54 METAR KRST 251654Z 30018G24KT 10SM CLR 03/M03 A3023 RMK AO2 SLP248 T00281033 =