##########################################################
# Query made at 01/09/2012 16:36:29 UTC
# Time interval: from 12/24/2006 23:00  to 12/26/2006 00:00  UTC
##########################################################

##########################################################
# KRST, Rochester, Rochester International Airport (United States)
# WMO index: 72644
# Latitude 43-54-15N. Longitude 092-29-30W. Altitude 401 m.
##########################################################

###################################
#  METAR/SPECI from KRST
###################################
200612252354 METAR KRST 252354Z 36010KT 10SM CLR M02/M06 A3000 RMK AO2
                        SLP176 T10221061 10000 21022 50001=
200612252254 METAR KRST 252254Z 34012KT 10SM CLR M02/M06 A3001 RMK AO2
                        SLP180 T10171061=
200612252154 METAR KRST 252154Z 35014KT 10SM CLR M01/M06 A2999 RMK AO2
                        SLP171 T10061056=
200612252054 METAR KRST 252054Z 35017KT 10SM CLR 00/M06 A2999 RMK AO2
                        SLP172 T00001061 56004=
200612251954 METAR KRST 251954Z 34015KT 10SM FEW021 00/M05 A2999 RMK AO2
                        SLP173 T00001050=
200612251854 METAR KRST 251854Z 35016KT 10SM FEW017 M01/M05 A2999 RMK
                        AO2 SLP171 T10061050=
200612251831 SPECI KRST 251831Z 35015KT 9SM SCT015 M01/M05 A2999 RMK AO2=
200612251831 SPECI KRST 251831Z 35015KT 9SM SCT015 M01/M05 A2999 RMK AO2=
200612251807 SPECI KRST 251807Z 36013KT 9SM BKN015 M01/M05 A3000 RMK AO2=
200612251807 SPECI KRST 251807Z 36013KT 9SM BKN015 M01/M05 A3000 RMK AO2=
200612251754 METAR KRST 251754Z 35015KT 8SM OVC013 M02/M05 A3000 RMK AO2
                        SLP176 T10171050 11017 21033 58019=
200612251654 METAR KRST 251654Z 36014KT 8SM OVC013 M02/M05 A3004 RMK AO2
                        SLP186 T10171050=
200612251554 METAR KRST 251554Z 35011KT 7SM OVC011 M03/M06 A3005 RMK AO2
                        SLP193 T10281056=
200612251454 METAR KRST 251454Z 35010KT 6SM HZ OVC011 M03/M06 A3006 RMK
                        AO2 SLP197 T10281056 51012=
200612251354 METAR KRST 251354Z 35009KT 9SM BKN013 M03/M06 A3006 RMK AO2
                        SLP196 T10281056=
200612251347 SPECI KRST 251347Z 35008KT 9SM BKN013 M03/M06 A3006 RMK AO2=
200612251347 SPECI KRST 251347Z 35008KT 9SM BKN013 M03/M06 A3006 RMK AO2=
200612251254 METAR KRST 251254Z 35013KT 10SM CLR M03/M06 A3003 RMK AO2
                        SLP187 T10281056=
200612251154 METAR KRST 251154Z 34014KT 10SM CLR M03/M06 A3003 RMK AO2
                        SLP184 T10281056 10000 21028 55009=
200612251054 METAR KRST 251054Z AUTO 33013KT 10SM CLR M02/M06 A3002 RMK
                        AO2 SLP180 T10221056=
200612250954 METAR KRST 250954Z AUTO 32011KT 10SM CLR M02/M05 A3004 RMK
                        AO2 SLP185 T10171050=
200612250854 METAR KRST 250854Z AUTO 32011KT 10SM CLR M02/M04 A3005 RMK
                        AO2 SLP192 T10171044 50000=
200612250754 METAR KRST 250754Z AUTO 31013KT 10SM CLR M01/M04 A3006 RMK
                        AO2 SLP192 T10111044=
200612250654 METAR KRST 250654Z AUTO 31011KT 10SM CLR M01/M04 A3006 RMK
                        AO2 SLP191 T10061044=
200612250554 METAR KRST 250554Z AUTO 32011KT 10SM CLR 00/M03 A3005 RMK
                        AO2 SLP190 T00001033 10011 20000
                        400441039 50006=
200612250454 METAR KRST 250454Z 32013KT 10SM FEW120 01/M03 A3005 RMK AO2
                        SLP191 T00111028=
200612250354 METAR KRST 250354Z 30010KT 10SM CLR 01/M02 A3004 RMK AO2
                        SLP188 T00111022=
200612250254 METAR KRST 250254Z 31012KT 10SM CLR 01/M02 A3003 RMK AO2
                        SLP186 T00061022 50009=
200612250154 METAR KRST 250154Z 29013KT 8SM CLR 01/M02 A3004 RMK AO2 SLP189
                        T00061017=
200612250054 METAR KRST 250054Z 25010KT 9SM CLR 01/M02 A3004 RMK AO2 SLP187
                        T00111017=
200612242354 METAR KRST 242354Z 27009KT 10SM CLR 02/M02 A3001 RMK AO2
                        SLP177 T00171017 10044 20017 51012=

# No short TAF reports from KRST in databse.

###################################
#  large TAF from KRST
###################################
200612252320 TAF KRST 252320Z 260024 34008KT P6SM SCT200 FM1000 31007KT P6SM
                       SCT150 BKN200 FM1500 26005KT P6SM SCT100
                       BKN200 FM2000 22007KT P6SM OVC100=
200612251722 TAF KRST 251722Z 251818 34014G18KT P6SM FEW020
                      TEMPO 1819 BKN015 FM0000 34008KT P6SM SCT200
                       FM0900 31007KT P6SM BKN200 FM1500 26008KT
                       P6SM BKN200=
200612251636 KRST 251636Z 251712 34012KT P6SM BKN015 FM1800 33013KT P6SM BKN050
                       FM2000 33014G18KT P6SM SCT025 FM2100 33012KT
                       P6SM SKC=
200612251311 KRST 251311Z 251312 32013KT P6SM BKN120 FM1400 33013KT P6SM BKN015
                       FM1600 33013KT P6SM BKN050 FM1800 33014G18KT
                       P6SM SCT025 FM2100 33012KT P6SM SKC=
200612251130 TAF KRST 251130Z 251212 32013KT P6SM BKN120 FM1400 33014G18KT P6SM
                       BKN020 FM1800 33014G18KT P6SM SCT025 FM2100
                       33012KT P6SM SKC=
200612250943 KRST 250943Z 251006 32011KT P6SM BKN120 FM1300 33014G21KT P6SM
                       BKN020 FM2100 33012KT P6SM SCT025=
200612250520 TAF KRST 250520Z 250606 32011KT P6SM SCT080 BKN120 FM1000 32013KT
                       P6SM BKN020 FM1300 33014G21KT P6SM BKN020
                       FM2100 33012KT P6SM SCT025=
200612242321 TAF KRST 242321Z 250024 27012KT P6SM SCT120 BKN200 FM0500 30009KT
                       P6SM SCT070 BKN120 FM0800 31012KT P6SM SCT020
                       BKN100 FM1000 32013KT P6SM OVC020 FM1400
                       33014G22KT P6SM OVC020=


